OBJECT_NAME,OBJECT_ID,EPOCH,MEAN_MOTION,ECCENTRICITY,INCLINATION,RA_OF_ASC_NODE,ARG_OF_PERICENTER,MEAN_ANOMALY,EPHEMERIS_TYPE,CLASSIFICATION_TYPE,NORAD_CAT_ID,ELEMENT_SET_NO,REV_AT_EPOCH,BSTAR,MEAN_MOTION_DOT,MEAN_MOTION_DDOT
GSAT0216 (GALILEO 20),2017-079B,2026-07-10T04:24:02.909664,1.70474478,.00048214,55.0690,220.8736,276.9654,83.0589,0,U,43056,999,5339,0,.9E-6,0
GSAT0217 (GALILEO 21),2017-079C,2026-07-07T11:18:36.053568,1.70474257,.00039099,55.0679,220.9459,293.3909,66.6394,0,U,43057,999,5333,0,.81E-6,0
GSAT0218 (GALILEO 22),2017-079D,2026-07-11T05:03:35.812224,1.70474393,.0005338,55.0671,220.8406,274.4477,85.5718,0,U,43058,999,5342,0,.89E-6,0
BEIDOU-3 M7 (C27),2018-003A,2026-07-10T10:33:21.407040,1.86228296,.00045175,54.3060,301.5047,98.3583,261.7116,0,U,43107,999,5778,0,-.68E-6,0
BEIDOU-3 M8 (C28),2018-003B,2026-07-11T10:59:43.624320,1.86231135,.0003008,54.2979,301.4505,258.7050,101.2808,0,U,43108,999,5781,0,-.67E-6,0
BEIDOU-3 M4 (C22),2018-018A,2026-07-10T06:58:14.818656,1.86231221,.0007465,56.6705,62.3878,27.3573,332.7450,0,U,43207,999,5717,0,-.46E-6,0
BEIDOU-3 M3 (C21),2018-018B,2026-07-10T21:27:12.840768,1.86231003,.0007948,56.6702,62.3717,345.4223,14.6194,0,U,43208,999,5718,0,-.45E-6,0
BEIDOU-3 M9 (C29),2018-029A,2026-07-08T10:14:58.759872,1.86228294,.0001105,54.1736,299.2068,182.3801,177.6433,0,U,43245,999,5629,0,-.63E-6,0
BEIDOU-3 M10 (C30),2018-029B,2026-07-11T01:06:22.713408,1.86229381,.0003325,54.1686,299.1412,36.7442,323.3010,0,U,43246,999,5632,0,-.64E-6,0
IRNSS-1I,2018-035A,2026-07-06T20:05:50.528832,1.00279237,.00180874,28.7973,73.8917,180.4002,27.0525,0,U,43286,999,3027,0,.79E-6,0
COSMOS 2527 (756),2018-053A,2026-07-11T00:24:34.135200,2.13102189,.0006603,65.5904,73.1132,231.0887,128.9155,0,U,43508,999,6278,0,-.21E-6,0
BEIDOU-2 IGSO-7 (C16),2018-057A,2026-07-01T21:23:21.693984,1.00246939,.01049468,55.1981,162.9292,237.8611,308.6338,0,U,43539,999,2927,0,-.33E-6,0
GSAT0221 (GALILEO 25),2018-060A,2026-07-09T22:36:05.857344,1.70476012,.0002608,57.1621,341.1668,288.2741,71.6944,0,U,43564,999,4955,0,-.79E-6,0
GSAT0222 (GALILEO 26),2018-060B,2026-07-11T08:01:48.054144,1.70475791,.0002691,57.1644,341.1328,235.7662,124.2009,0,U,43565,999,4962,0,-.85E-6,0
GSAT0219 (GALILEO 23),2018-060C,2026-07-09T05:01:07.936896,1.70476041,.00017911,57.1645,341.1918,303.0651,56.9164,0,U,43566,999,4956,0,-.76E-6,0
GSAT0220 (GALILEO 24),2018-060D,2026-07-10T14:28:43.498272,1.70475685,.0002118,57.1637,341.1546,293.2596,66.7130,0,U,43567,999,4957,0,-.81E-6,0
BEIDOU-3 M5 (C23),2018-062A,2026-07-10T17:35:40.285824,1.86228457,.0005696,54.0867,181.5039,292.3937,67.5502,0,U,43581,999,5407,0,.103E-5,0
BEIDOU-3 M6 (C24),2018-062B,2026-07-11T03:12:26.597088,1.86227689,.0005318,54.0861,181.4793,10.3380,349.6750,0,U,43582,999,5408,0,.97E-6,0
BEIDOU-3 M12 (C26),2018-067A,2026-07-11T01:43:46.833312,1.86227713,.0007896,54.1816,180.2303,30.3679,329.6779,0,U,43602,999,5356,0,.97E-6,0
BEIDOU-3 M11 (C25),2018-067B,2026-07-11T04:58:22.028160,1.86227159,.0004609,54.1790,180.1895,13.3752,346.6361,0,U,43603,999,5359,0,.95E-6,0
BEIDOU-3 M13 (C32),2018-072A,2026-07-11T03:53:09.237408,1.86231317,.0006305,56.6449,61.8695,333.1065,26.9264,0,U,43622,999,5310,0,-.44E-6,0
BEIDOU-3 M14 (C33),2018-072B,2026-07-09T22:52:56.764128,1.86231182,.0005491,56.6460,61.9028,10.8304,349.2439,0,U,43623,999,5307,0,-.46E-6,0
BEIDOU-3 M16 (C35),2018-078A,2026-07-09T00:49:44.028768,1.86232218,.0006721,54.0687,299.2200,40.1381,319.9343,0,U,43647,999,5256,0,-.64E-6,0
BEIDOU-3 M15 (C34),2018-078B,2026-07-07T00:23:04.552224,1.86232386,.0003746,54.0663,299.2911,58.7000,301.3630,0,U,43648,999,5254,0,-.61E-6,0
BEIDOU-3 G1 (C59),2018-085A,2026-07-11T12:49:19.629408,1.00272785,.00081,2.9262,96.7295,355.4681,189.5230,0,U,43683,999,2830,0,-.106E-5,0
COSMOS 2529 (757),2018-086A,2026-07-11T02:43:12.569952,2.13101972,.0012111,64.2969,191.7864,256.4030,103.4921,0,U,43687,999,5979,0,.113E-5,0
BEIDOU-3 M17 (C36),2018-093A,2026-07-11T05:01:11.507808,1.86228231,.0010142,54.1701,181.4815,293.6750,249.0648,0,U,43706,999,5198,0,.96E-6,0
BEIDOU-3 M18 (C37),2018-093B,2026-07-10T06:18:55.450656,1.86226328,.00080293,54.1710,181.5060,322.3122,37.6380,0,U,43707,999,5196,0,.11E-5,0
BEIDOU-3 IGSO-1 (C38),2019-023A,2026-07-11T11:21:09.211392,1.00284056,.0025624,58.7291,37.4004,224.0842,317.2354,0,U,44204,999,745,0,-.206E-5,0
BEIDOU-2 G8 (C01),2019-027A,2026-07-11T11:38:41.540928,1.00272969,.0009793,1.7159,74.5095,282.8905,251.1799,0,U,44231,999,2632,0,-.243E-5,0
